COMMENT,ORIGINATOR,NORAD_CAT_ID,OBJECT_NAME,OBJECT_TYPE,CLASSIFICATION_TYPE,INTLDES,EPOCH,EPOCH_MICROSECONDS,MEAN_MOTION,ECCENTRICITY,INCLINATION,RA_OF_ASC_NODE,ARG_OF_PERICENTER,MEAN_ANOMALY,EPHEMERIS_TYPE,ELEMENT_SET_NO,REV_AT_EPOCH,BSTAR,MEAN_MOTION_DOT,MEAN_MOTION_DDOT,FILE,TLE_LINE0,TLE_LINE1,TLE_LINE2,OBJECT_ID,OBJECT_NUMBER,SEMIMAJOR_AXIS,PERIOD,APOGEE,PERIGEE
"GENERATED VIA SPACETRACK.ORG API","JSPOC","4383","COSMOS 336","PAYLOAD","U","70036A","2016-01-09 10:24:24","835392","12.47607346","0.0013548","74.0296","357.4181","79.8338","75.2444","0","999","8187","-2.8637e-05","-2e-07","0","1978090","0 COSMOS 336","1 04383U 70036A   16009.43362078 -.00000020  00000-0 -28637-4 0  9997","2 04383  74.0296 357.4181 0013548  79.8338  75.2444 12.47607346 81876","1970-036A","4383","7852.655","115.420","1485.159","1463.881"
"GENERATED VIA SPACETRACK.ORG API","JSPOC","23637","ARIANE 42L+3 R/B","ROCKET BODY","U","95040B","2016-01-09 10:24:26","652384","2.18662418","0.7211363","4.4193","287.6949","142.0181","15.4113","0","999","16314","-3.0729e-05","-4.4e-07","0","1978726","0 ARIANE 42L+3 R/B","1 23637U 95040B   16009.43364181 -.00000044 +00000-0 -30729-4 0  9990","2 23637 004.4193 287.6949 7211363 142.0181 015.4113 02.18662418163147","1995-040B","23637","25073.737","658.549","36777.185","614.020"
"GENERATED VIA SPACETRACK.ORG API","JSPOC","25273","IRIDIUM 57","PAYLOAD","U","98019B","2016-01-09 10:25:34","146336","14.34215805","0.0001973","86.3991","146.6846","94.416","265.7261","0","999","93085","5.5483e-05","1.75e-06","0","1978179","0 IRIDIUM 57","1 25273U 98019B   16009.43442299  .00000175  00000-0  55483-4 0  9991","2 25273  86.3991 146.6846 0001973  94.4160 265.7261 14.34215805930853","1998-019B","25273","7155.810","100.403","779.087","776.263"
"GENERATED VIA SPACETRACK.ORG API","JSPOC","40732","METEOSAT 11 (MSG 4)","PAYLOAD","U","15034A","2016-01-09 10:26:23","581824","1.00277617","0.0002165","2.8306","261.2339","38.7163","321.7627","0","999","182","0","-1.7e-07","0","1979034","0 METEOSAT 11 (MSG 4)","1 40732U 15034A   16009.43499516 -.00000017 +00000-0 +00000-0 0  9995","2 40732 002.8306 261.2339 0002165 038.7163 321.7627 01.00277617001825","2015-034A","40732","42163.097","1436.013","35794.090","35775.833"
"GENERATED VIA SPACETRACK.ORG API","JSPOC","40732","METEOSAT 11 (MSG 4)","PAYLOAD","U","15034A","2016-01-09 10:26:24","545184","1.00277614","0.0002166","2.8306","261.2379","38.5418","321.9371","0","999","182","0","-1.7e-07","0","1978726","0 METEOSAT 11 (MSG 4)","1 40732U 15034A   16009.43500631 -.00000017 +00000-0 +00000-0 0  9996","2 40732 002.8306 261.2379 0002166 038.5418 321.9371 01.00277614001826","2015-034A","40732","42163.097","1436.013","35794.095","35775.830"
"GENERATED VIA SPACETRACK.ORG API","JSPOC","24728","GONETS D1 4","PAYLOAD","U","97006D","2016-01-09 10:26:30","609600","12.63835251","0.0007641","82.6037","146.9684","194.0548","166.0341","0","999","87193","-0.00012738","-1.3e-07","0","1978064","0 GONETS D1 4","1 24728U 97006D   16009.43507650 -.00000013  00000-0 -12738-3 0  9991","2 24728  82.6037 146.9684 0007641 194.0548 166.0341 12.63835251871933","1997-006D","24728","7785.291","113.938","1413.105","1401.207"
"GENERATED VIA SPACETRACK.ORG API","JSPOC","40046","AEROCUBE 6B","PAYLOAD","U","14033AN","2016-01-09 10:26:39","959808","14.74036676","0.0058305","97.9264","262.228","176.2668","183.8988","0","999","8353","0.00015851","1.019e-05","0","1978137","0 AEROCUBE 6B","1 40046U 14033AN  16009.43518472  .00001019  00000-0  15851-3 0  9999","2 40046  97.9264 262.2280 0058305 176.2668 183.8988 14.74036676 83530","2014-033AN","40046","7026.347","97.690","689.180","607.245"
"GENERATED VIA SPACETRACK.ORG API","JSPOC","16001","LEASAT 4 PKM","ROCKET BODY","U","85076F","2016-01-09 10:27:24","483456","5.42996081","0.50648","27.4076","71.401","54.4554","342.9262","0","999","58386","0.00032294","5.91e-06","0","1978726","0 LEASAT 4 PKM","1 16001U 85076F   16009.43570004 +.00000591 +00000-0 +32294-3 0  9991","2 16001 027.4076 071.4010 5064800 054.4554 342.9262 05.42996081583861","1985-076F","16001","13673.217","265.195","14220.293","369.871"
"GENERATED VIA SPACETRACK.ORG API","JSPOC","19687","SKYNET 4B","PAYLOAD","U","88109A","2016-01-09 10:27:31","243392","0.99676287","0.00084","15.3115","11.0547","219.8853","140.0858","0","999","8023","0","-2.45e-06","0","1978212","0 SKYNET 4B","1 19687U 88109A   16009.43577828 -.00000245  00000-0  00000+0 0  9998","2 19687  15.3115  11.0547 0008400 219.8853 140.0858  0.99676287 80238","1988-109A","19687","42332.502","1444.676","35989.926","35918.807"
"GENERATED VIA SPACETRACK.ORG API","JSPOC","39076","GLOBALSTAR M078","PAYLOAD","U","13005E","2016-01-09 10:28:01","32384","12.62269173","1.89e-05","51.9905","10.8636","124.2411","235.8474","0","999","13485","-7.3452e-05","-1.17e-06","0","1978726","0 GLOBALSTAR M078","1 39076U 13005E   16009.43612306 -.00000117 +00000-0 -73452-4 0  9991","2 39076 051.9905 010.8636 0000189 124.2411 235.8474 12.62269173134856","2013-005E","39076","7791.729","114.080","1413.741","1413.447"
"GENERATED VIA SPACETRACK.ORG API","JSPOC","28137","ESTRELA DU SOL-TELSTAR14","PAYLOAD","U","04001A","2016-01-09 10:28:13","181088","0.98832434","0.0007362","3.5895","67.4631","209.8615","301.9052","0","999","4394","0","-1.93e-06","0","1978075","0 ESTRELA DU SOL-TELSTAR14","1 28137U 04001A   16009.43626367 -.00000193  00000-0  00000+0 0  9992","2 28137   3.5895  67.4631 0007362 209.8615 301.9052  0.98832434 43940","2004-001A","28137","42573.123","1457.011","36226.330","36163.646"
"GENERATED VIA SPACETRACK.ORG API","JSPOC","23319","EXPRESS 1","PAYLOAD","U","94067A","2016-01-09 10:28:13","181088","0.99828264","0.0007366","12.5804","34.3307","172.5854","11.1323","0","999","7752","0","-2.88e-06","0","1978726","0 EXPRESS 1","1 23319U 94067A   16009.43626367 -.00000288 +00000-0 +00000-0 0  9996","2 23319 012.5804 034.3307 0007366 172.5854 011.1323 00.99828264077524","1994-067A","23319","42289.527","1442.477","35942.542","35880.241"
"GENERATED VIA SPACETRACK.ORG API","JSPOC","23331","ASTRA 1D","PAYLOAD","U","94070A","2016-01-09 10:28:13","181088","1.00269617","0.0003878","6.7337","53.3611","239.311","285.4537","0","999","7806","0","-2.82e-06","0","1978726","0 ASTRA 1D","1 23331U 94070A   16009.43626367 -.00000282 +00000-0 +00000-0 0  9998","2 23331 006.7337 053.3611 0003878 239.3110 285.4537 01.00269617078061","1994-070A","23331","42165.339","1436.127","35803.556","35770.853"
"GENERATED VIA SPACETRACK.ORG API","JSPOC","25239","NSS 806 (INTELSAT 806)","PAYLOAD","U","98014A","2016-01-09 10:28:13","181088","1.00270551","0.0004716","0.0527","13.2657","273.3178","291.3653","0","999","909","0","-2.73e-06","0","1978726","0 NSS 806 (INTELSAT 806)","1 25239U 98014A   16009.43626367 -.00000273 +00000-0 +00000-0 0  9999","2 25239 000.0527 013.2657 0004716 273.3178 291.3653 01.00270551009098","1998-014A","25239","42165.077","1436.114","35806.827","35767.057"
"GENERATED VIA SPACETRACK.ORG API","JSPOC","20558","ASIASAT 1","PAYLOAD","U","90030A","2016-01-09 10:28:13","181088","0.99244267","0.0005622","13.4358","31.9231","222.9899","323.4136","0","999","838","0","-2.47e-06","0","1979034","0 ASIASAT 1","1 20558U 90030A   16009.43626367 -.00000247 +00000-0 +00000-0 0  9999","2 20558 013.4358 031.9231 0005622 222.9899 323.4136 00.99244267008385","1990-030A","20558","42455.264","1450.965","36100.998","36053.261"
"GENERATED VIA SPACETRACK.ORG API","JSPOC","40041","FLOCK 1C 3","PAYLOAD","U","14033AH","2016-01-09 10:28:28","109280","14.87687302","0.0012056","97.9494","275.4284","212.3555","147.6936","0","999","8444","6.1202e-05","5.01e-06","0","1978084","0 FLOCK 1C 3","1 40041U 14033AH  16009.43643645  .00000501  00000-0  61202-4 0  9992","2 40041  97.9494 275.4284 0012056 212.3555 147.6936 14.87687302 84444","2014-033AH","40041","6983.300","96.794","613.584","596.746"
"GENERATED VIA SPACETRACK.ORG API","JSPOC","39485","COSMOS 2490","PAYLOAD","U","13076C","2016-01-09 10:28:37","62912","12.42870959","0.0022442","82.482","24.1548","137.7308","222.5514","0","999","9257","0","1e-07","0","1978151","0 COSMOS 2490","1 39485U 13076C   16009.43654008  .00000010  00000-0  00000+0 0  9992","2 39485  82.4820  24.1548 0022442 137.7308 222.5514 12.42870959 92573","2013-076C","39485","7872.593","115.860","1512.125","1476.790"
"GENERATED VIA SPACETRACK.ORG API","JSPOC","40031","FLOCK 1C 4","PAYLOAD","U","14033X","2016-01-09 10:28:40","165536","14.87780459","0.0013347","97.9447","275.379","221.5867","138.4332","0","999","8444","6.2842e-05","5.18e-06","0","1978136","0 FLOCK 1C 4","1 40031U 14033X   16009.43657599  .00000518  00000-0  62842-4 0  9993","2 40031  97.9447 275.3790 0013347 221.5867 138.4332 14.87780459 84449","2014-033X","40031","6983.009","96.788","614.194","595.553"
"GENERATED VIA SPACETRACK.ORG API","JSPOC","20978","DMSP 5D-2 F10 (USA 68)","PAYLOAD","U","90105A","2016-01-09 10:29:20","107392","14.37771218","0.0074684","98.5578","323.0081","84.6783","276.2919","0","999","31476","6.21e-05","1.49e-06","0","1978172","0 DMSP 5D-2 F10 (USA 68)","1 20978U 90105A   16009.43703828  .00000149  00000-0  62100-4 0  9999","2 20978  98.5578 323.0081 0074684  84.6783 276.2919 14.37771218314760","1990-105A","20978","7144.008","100.155","819.228","712.519"
"GENERATED VIA SPACETRACK.ORG API","JSPOC","25010","APSTAR 2R (TELSTAR 10)","PAYLOAD","U","97062A","2016-01-09 10:29:26","525184","0.99209886","0.0015224","2.9172","71.7248","197.9061","298.1113","0","999","6665","0","-1.95e-06","0","1978162","0 APSTAR 2R (TELSTAR 10)","1 25010U 97062A   16009.43711256 -.00000195  00000-0  00000+0 0  9992","2 25010   2.9172  71.7248 0015224 197.9061 298.1113  0.99209886 66656","1997-062A","25010","42465.072","1451.468","36151.586","36022.289"
